     2              NAVIGATION DATA                         RINEX VERSION / TYPE
CCRINEXN V1.6.0 UX  CDDIS               19-OCT-15 17:31     PGM / RUN BY / DATE 
IGS BROADCAST EPHEMERIS FILE                                COMMENT             
    0.1583D-07  0.0000D+00 -0.1192D-06  0.0000D+00          ION ALPHA           
    0.1106D+06  0.0000D+00 -0.2621D+06  0.6554D+05          ION BETA            
   -0.186264514923D-08-0.710542735760D-14   147456     1867 DELTA-UTC: A0,A1,T,W
    17                                                      LEAP SECONDS        
                                                            END OF HEADER       
 9 15 10 18 21 59 44.0-0.105658546090D-05 0.397903932026D-11 0.000000000000D+00
    0.430000000000D+02 0.417812500000D+02 0.451947396852D-08 0.895873018833D+00
    0.207498669624D-05 0.348921050318D-03 0.951997935772D-05 0.515371858597D+04
    0.791840000000D+05-0.428408384323D-07-0.247457241091D+01 0.223517417908D-07
    0.956636005901D+00 0.192250000000D+03 0.242590107375D+01-0.799104714490D-08
   -0.272154193457D-09 0.000000000000D+00 0.186700000000D+04 0.000000000000D+00
    0.200000000000D+01 0.000000000000D+00 0.931322574616D-09 0.430000000000D+02
    0.759000000000D+05 0.400000000000D+01 0.000000000000D+00 0.000000000000D+00
20 15 10 18 21 59 44.0 0.364166218787D-03 0.295585778076D-11 0.000000000000D+00
    0.000000000000D+00-0.640625000000D+01 0.571666669354D-08 0.768555354947D+00
   -0.221654772759D-06 0.497374346014D-02 0.695139169693D-05 0.515364851952D+04
    0.791840000000D+05-0.614672899246D-07 0.269000669973D+01 0.242143869400D-07
    0.926446283372D+00 0.229187500000D+03 0.124793897595D+01-0.864071706341D-08
   -0.136434254463D-09 0.100000000000D+01 0.186700000000D+04 0.000000000000D+00
    0.200000000000D+01 0.000000000000D+00-0.838190317154D-08 0.000000000000D+00
    0.777060000000D+05 0.400000000000D+01 0.000000000000D+00 0.000000000000D+00
26 15 10 18 21 59 44.0-0.889818184078D-04-0.135287336889D-10 0.000000000000D+00
    0.240000000000D+02-0.280000000000D+02 0.463376444346D-08-0.299155014461D+01
   -0.144541263580D-05 0.221586902626D-03 0.372156500816D-05 0.515365038872D+04
    0.791840000000D+05-0.279396772385D-07-0.378804241894D+00 0.614672899246D-07
    0.960791007773D+00 0.308468750000D+03-0.607029635392D-01-0.838963517627D-08
   -0.917895376884D-10 0.100000000000D+01 0.186700000000D+04 0.000000000000D+00
    0.200000000000D+01 0.000000000000D+00 0.745058059692D-08 0.240000000000D+02
    0.746280000000D+05 0.400000000000D+01 0.000000000000D+00 0.000000000000D+00
 1 15 10 18 22  0  0.0 0.264216214418D-05 0.795807864051D-12 0.000000000000D+00
    0.920000000000D+02-0.403125000000D+01 0.461447792581D-08-0.730586466053D+00
   -0.124797224999D-06 0.476034695748D-02 0.789016485214D-05 0.515365748024D+04
    0.792000000000D+05 0.782310962677D-07 0.172634384186D+01-0.745058059692D-08
    0.962651479692D+00 0.228281250000D+03 0.490833294183D+00-0.808569394446D-08
    0.380015829185D-09 0.000000000000D+00 0.186700000000D+04 0.000000000000D+00
    0.200000000000D+01 0.000000000000D+00 0.512227416039D-08 0.920000000000D+02
    0.720000000000D+05 0.400000000000D+01 0.000000000000D+00 0.000000000000D+00
 2 15 10 18 22  0  0.0 0.593170989305D-03 0.125055521494D-11 0.000000000000D+00
    0.400000000000D+02 0.525000000000D+01 0.523628954105D-08-0.150292706009D+00
    0.350177288055D-06 0.148704824969D-01 0.832602381706D-05 0.515364554215D+04
    0.792000000000D+05-0.279396772385D-07 0.168561958334D+01 0.253319740295D-06
    0.941327811682D+00 0.213875000000D+03-0.222370155903D+01-0.856928551657D-08
    0.441089801732D-09 0.000000000000D+00 0.186700000000D+04 0.000000000000D+00
    0.200000000000D+01 0.000000000000D+00-0.204890966415D-07 0.400000000000D+02
    0.791400000000D+05 0.400000000000D+01 0.000000000000D+00 0.000000000000D+00
 3 15 10 18 22  0  0.0 0.195293687284D-04-0.159161572810D-11 0.000000000000D+00
    0.240000000000D+02-0.968750000000D+01 0.493949146393D-08 0.150169492611D+01
   -0.489875674248D-06 0.478781526908D-03 0.695511698723D-05 0.515357595825D+04
    0.792000000000D+05 0.558793544769D-07 0.276732218939D+01 0.372529029846D-07
    0.959515470482D+00 0.246000000000D+03-0.279837340536D+01-0.821605651745D-08
   -0.103575742917D-09 0.000000000000D+00 0.186700000000D+04 0.000000000000D+00
    0.200000000000D+01 0.000000000000D+00 0.186264514923D-08 0.240000000000D+02
    0.720000000000D+05 0.400000000000D+01 0.000000000000D+00 0.000000000000D+00
 4 15 10 18 22  0  0.0-0.341287814081D-04-0.511590769747D-11 0.000000000000D+00
    0.430000000000D+02 0.159375000000D+01 0.517057251796D-08-0.923860515687D+00
    0.348314642906D-06 0.119668685365D-01 0.786595046520D-05 0.515364337921D+04
    0.792000000000D+05 0.391155481338D-07 0.170071594409D+01 0.212341547012D-06
    0.940422091303D+00 0.220500000000D+03 0.111207097136D+01-0.842249368781D-08
    0.385730352932D-09 0.000000000000D+00 0.186700000000D+04 0.000000000000D+00
    0.200000000000D+01 0.000000000000D+00-0.651925802231D-08 0.430000000000D+02
    0.720000000000D+05 0.400000000000D+01 0.000000000000D+00 0.000000000000D+00
 5 15 10 18 22  0  0.0-0.183728057891D-03 0.386535248253D-11 0.000000000000D+00
    0.560000000000D+02-0.100937500000D+02 0.522236038942D-08 0.229183643315D+01
   -0.463798642158D-06 0.447131134570D-02 0.723265111446D-05 0.515365833092D+04
    0.792000000000D+05-0.126659870148D-06 0.275838861828D+01-0.111758708954D-07
    0.946669668752D+00 0.233718750000D+03 0.446080851229D+00-0.825355807954D-08
   -0.138220043134D-09 0.100000000000D+01 0.186700000000D+04 0.000000000000D+00
    0.200000000000D+01 0.000000000000D+00-0.107102096081D-07 0.560000000000D+02
    0.729900000000D+05 0.000000000000D+00 0.000000000000D+00 0.000000000000D+00
 6 15 10 18 22  0  0.0 0.791712664068D-04 0.693489710102D-11 0.000000000000D+00
    0.610000000000D+02 0.400000000000D+01 0.462769276198D-08 0.166169914796D+01
   -0.149011611938D-07 0.211670529097D-03 0.833347439766D-05 0.515356080627D+04
    0.792000000000D+05-0.484287738800D-07 0.171787439906D+01 0.298023223877D-07
    0.962512547825D+00 0.221031250000D+03 0.278341791630D+01-0.802997733793D-08
    0.409302763389D-09 0.000000000000D+00 0.186700000000D+04 0.000000000000D+00
    0.200000000000D+01 0.000000000000D+00 0.419095158577D-08 0.610000000000D+02
    0.749400000000D+05 0.400000000000D+01 0.000000000000D+00 0.000000000000D+00
 7 15 10 18 22  0  0.0 0.482577364892D-03-0.909494701773D-12 0.000000000000D+00
    0.990000000000D+02 0.658125000000D+02 0.430232206613D-08-0.137637450382D+01
    0.336393713951D-05 0.899538560771D-02 0.555068254471D-05 0.515369606590D+04
    0.792000000000D+05 0.111758708954D-06-0.139701203107D+01-0.143423676491D-06
    0.968538996428D+00 0.277187500000D+03-0.268967036023D+01-0.803819196582D-08
    0.517878714584D-10 0.000000000000D+00 0.186700000000D+04 0.000000000000D+00
    0.200000000000D+01 0.000000000000D+00-0.111758708954D-07 0.990000000000D+02
    0.721800000000D+05 0.400000000000D+01 0.000000000000D+00 0.000000000000D+00
 8 15 10 18 22  0  0.0-0.920239835978D-05-0.136424205266D-11 0.000000000000D+00
    0.770000000000D+02-0.698750000000D+02 0.428553565262D-08 0.292461246121D+01
   -0.363215804100D-05 0.143385084812D-02 0.863336026668D-05 0.515359483528D+04
    0.792000000000D+05 0.000000000000D+00 0.667766464022D+00-0.745058059692D-08
    0.960874595987D+00 0.212656250000D+03-0.174706864973D+01-0.792854454142D-08
    0.126076680171D-09 0.000000000000D+00 0.186700000000D+04 0.000000000000D+00
    0.400000000000D+01 0.000000000000D+00 0.465661287308D-08 0.770000000000D+02
    0.720000000000D+05 0.400000000000D+01 0.000000000000D+00 0.000000000000D+00
10 15 10 18 22  0  0.0 0.289827585220D-05 0.682121026330D-12 0.000000000000D+00
    0.141000000000D+03-0.715000000000D+02 0.458483383388D-08 0.177901320101D+01
   -0.370666384697D-05 0.101532735862D-01 0.816024839878D-05 0.515364967918D+04
    0.792000000000D+05-0.465661287308D-07 0.591996784299D+00 0.109896063805D-06
    0.950572163649D+00 0.217625000000D+03 0.152598538467D+00-0.812319550656D-08
   -0.475019786481D-10 0.100000000000D+01 0.186700000000D+04 0.000000000000D+00
    0.200000000000D+01 0.630000000000D+02-0.558793544769D-08 0.141000000000D+03
    0.778500000000D+05 0.400000000000D+01 0.000000000000D+00 0.000000000000D+00
11 15 10 18 22  0  0.0-0.610973220319D-03-0.227373675443D-11 0.000000000000D+00
    0.460000000000D+02-0.496875000000D+01 0.604310886260D-08-0.128934916019D+01
    0.838190317154D-07 0.162979173474D-01 0.830367207527D-05 0.515363458824D+04
    0.792000000000D+05-0.372529029846D-07 0.136504587541D+01 0.376254320145D-06
    0.894111555747D+00 0.185718750000D+03 0.146992945063D+01-0.885358307299D-08
    0.375015620906D-09 0.000000000000D+00 0.186700000000D+04 0.000000000000D+00
    0.200000000000D+01 0.000000000000D+00-0.121071934700D-07 0.460000000000D+02
    0.720000000000D+05 0.400000000000D+01 0.000000000000D+00 0.000000000000D+00
12 15 10 18 22  0  0.0 0.337971840054D-03 0.329691829393D-11 0.000000000000D+00
    0.440000000000D+02-0.457187500000D+02 0.390159108836D-08-0.183410737467D+01
   -0.225938856602D-05 0.551132811233D-02 0.445172190666D-05 0.515359123039D+04
    0.792000000000D+05-0.149011611938D-07-0.325422661080D+00-0.102445483208D-06
    0.990356633358D+00 0.310187500000D+03 0.645903991580D+00-0.792818738369D-08
   -0.112504686272D-09 0.100000000000D+01 0.186700000000D+04 0.000000000000D+00
    0.200000000000D+01 0.000000000000D+00-0.125728547573D-07 0.440000000000D+02
    0.720180000000D+05 0.400000000000D+01 0.000000000000D+00 0.000000000000D+00
